{
  "type": "FeatureCollection",
  "features": [
    {
      "type": "Feature",
      "properties": {
        "norad_id": 37238,
        "name": "INTELSAT 17 (IS-17)",
        "group": "intelsat",
        "lat": 0.026244419375183528,
        "lon": 19.39142667542672,
        "alt_km": 35791.13800261934,
        "timestamp": "2025-12-08T15:42:49.446283+00:00",
        "meta_object_name": "INTELSAT 17 (IS-17)",
        "meta_object_id": "2010-065B",
        "meta_epoch": "2025-12-08T05:21:14.977728",
        "meta_mean_motion": 1.00272189,
        "meta_eccentricity": 0.00023868,
        "meta_inclination": 0.0182,
        "meta_ra_of_asc_node": 278.9294,
        "meta_arg_of_pericenter": 339.5317,
        "meta_mean_anomaly": 325.0916,
        "meta_ephemeris_type": 0,
        "meta_classification_type": "U",
        "meta_norad_cat_id": 37238,
        "meta_element_set_no": 999,
        "meta_rev_at_epoch": 5133,
        "meta_bstar": 0,
        "meta_mean_motion_dot": 1e-08,
        "meta_mean_motion_ddot": 0,
        "tle_line1": "1 37238U 10065B   25342.22309002  .00000001  00000+0  00000+0 0  9998",
        "tle_line2": "2 37238   0.0182 278.9294 0002386 339.5317 325.0916  1.00272189 51335"
      },
      "geometry": {
        "type": "Point",
        "coordinates": [
          19.39142667542672,
          0.026244419375183528
        ]
      }
    },
    {
      "type": "Feature",
      "properties": {
        "norad_id": 37392,
        "name": "INTELSAT 28 (IS-28)",
        "group": "intelsat",
        "lat": -0.39446441827389067,
        "lon": -78.33898941180205,
        "alt_km": 35769.8462103586,
        "timestamp": "2025-12-08T15:42:49.446295+00:00",
        "meta_object_name": "INTELSAT 28 (IS-28)",
        "meta_object_id": "2011-016A",
        "meta_epoch": "2025-12-08T03:10:49.968192",
        "meta_mean_motion": 1.0027034,
        "meta_eccentricity": 0.00041473,
        "meta_inclination": 1.3125,
        "meta_ra_of_asc_node": 85.113,
        "meta_arg_of_pericenter": 178.8993,
        "meta_mean_anomaly": 189.131,
        "meta_ephemeris_type": 0,
        "meta_classification_type": "U",
        "meta_norad_cat_id": 37392,
        "meta_element_set_no": 999,
        "meta_rev_at_epoch": 5137,
        "meta_bstar": 0,
        "meta_mean_motion_dot": -2.23e-06,
        "meta_mean_motion_ddot": 0,
        "tle_line1": "1 37392U 11016A   25342.13252278 -.00000223  00000+0  00000+0 0  9995",
        "tle_line2": "2 37392   1.3125  85.1130 0004147 178.8993 189.1310  1.00270340 51373"
      },
      "geometry": {
        "type": "Point",
        "coordinates": [
          -78.33898941180205,
          -0.39446441827389067
        ]
      }
    },
    {
      "type": "Feature",
      "properties": {
        "norad_id": 37834,
        "name": "INTELSAT 18 (IS-18)",
        "group": "intelsat",
        "lat": 0.016982660490469762,
        "lon": 133.3367084429794,
        "alt_km": 35791.86591092495,
        "timestamp": "2025-12-08T15:42:49.446307+00:00",
        "meta_object_name": "INTELSAT 18 (IS-18)",
        "meta_object_id": "2011-056A",
        "meta_epoch": "2025-12-08T05:53:56.845248",
        "meta_mean_motion": 1.00270824,
        "meta_eccentricity": 0.00021057,
        "meta_inclination": 0.0173,
        "meta_ra_of_asc_node": 337.4993,
        "meta_arg_of_pericenter": 284.3254,
        "meta_mean_anomaly": 83.9147,
        "meta_ephemeris_type": 0,
        "meta_classification_type": "U",
        "meta_norad_cat_id": 37834,
        "meta_element_set_no": 999,
        "meta_rev_at_epoch": 5189,
        "meta_bstar": 0,
        "meta_mean_motion_dot": 5.5e-07,
        "meta_mean_motion_ddot": 0,
        "tle_line1": "1 37834U 11056A   25342.24579682  .00000055  00000+0  00000+0 0  9995",
        "tle_line2": "2 37834   0.0173 337.4993 0002105 284.3254  83.9147  1.00270824 51891"
      },
      "geometry": {
        "type": "Point",
        "coordinates": [
          133.3367084429794,
          0.016982660490469762
        ]
      }
    },
    {
      "type": "Feature",
      "properties": {
        "norad_id": 38098,
        "name": "INTELSAT 22 (IS-22)",
        "group": "intelsat",
        "lat": 0.007232276462556456,
        "lon": 25.48478014909684,
        "alt_km": 35789.782392273315,
        "timestamp": "2025-12-08T15:42:49.446319+00:00",
        "meta_object_name": "INTELSAT 22 (IS-22)",
        "meta_object_id": "2012-011A",
        "meta_epoch": "2025-12-08T03:40:24.636288",
        "meta_mean_motion": 1.00271218,
        "meta_eccentricity": 0.00017409,
        "meta_inclination": 0.011,
        "meta_ra_of_asc_node": 33.0436,
        "meta_arg_of_pericenter": 233.7123,
        "meta_mean_anomaly": 297.619,
        "meta_ephemeris_type": 0,
        "meta_classification_type": "U",
        "meta_norad_cat_id": 38098,
        "meta_element_set_no": 999,
        "meta_rev_at_epoch": 527,
        "meta_bstar": 0,
        "meta_mean_motion_dot": -5.6e-07,
        "meta_mean_motion_ddot": 0,
        "tle_line1": "1 38098U 12011A   25342.15306292 -.00000056  00000+0  00000+0 0  9997",
        "tle_line2": "2 38098   0.0110  33.0436 0001740 233.7123 297.6190  1.00271218  5274"
      },
      "geometry": {
        "type": "Point",
        "coordinates": [
          25.48478014909684,
          0.007232276462556456
        ]
      }
    },
    {
      "type": "Feature",
      "properties": {
        "norad_id": 38356,
        "name": "INTELSAT 19 (IS-19)",
        "group": "intelsat",
        "lat": 0.017123179251092652,
        "lon": 119.33872405517494,
        "alt_km": 35798.585312569536,
        "timestamp": "2025-12-08T15:42:49.446331+00:00",
        "meta_object_name": "INTELSAT 19 (IS-19)",
        "meta_object_id": "2012-030A",
        "meta_epoch": "2025-12-08T05:49:57.227808",
        "meta_mean_motion": 1.00271382,
        "meta_eccentricity": 0.00035673,
        "meta_inclination": 0.011,
        "meta_ra_of_asc_node": 324.9676,
        "meta_arg_of_pericenter": 299.563,
        "meta_mean_anomaly": 66.2134,
        "meta_ephemeris_type": 0,
        "meta_classification_type": "U",
        "meta_norad_cat_id": 38356,
        "meta_element_set_no": 999,
        "meta_rev_at_epoch": 4853,
        "meta_bstar": 0,
        "meta_mean_motion_dot": -5.4e-07,
        "meta_mean_motion_ddot": 0,
        "tle_line1": "1 38356U 12030A   25342.24302347 -.00000054  00000+0  00000+0 0  9990",
        "tle_line2": "2 38356   0.0110 324.9676 0003567 299.5630  66.2134  1.00271382 48537"
      },
      "geometry": {
        "type": "Point",
        "coordinates": [
          119.33872405517494,
          0.017123179251092652
        ]
      }
    },
    {
      "type": "Feature",
      "properties": {
        "norad_id": 38740,
        "name": "INTELSAT 20 (IS-20)",
        "group": "intelsat",
        "lat": 0.0007768261834347995,
        "lon": 21.807669672858523,
        "alt_km": 35799.4317336593,
        "timestamp": "2025-12-08T15:42:49.446343+00:00",
        "meta_object_name": "INTELSAT 20 (IS-20)",
        "meta_object_id": "2012-043A",
        "meta_epoch": "2025-12-07T20:48:32.291424",
        "meta_mean_motion": 1.00256173,
        "meta_eccentricity": 0.00026391,
        "meta_inclination": 0.0039,
        "meta_ra_of_asc_node": 83.3168,
        "meta_arg_of_pericenter": 82.8308,
        "meta_mean_anomaly": 291.3783,
        "meta_ephemeris_type": 0,
        "meta_classification_type": "U",
        "meta_norad_cat_id": 38740,
        "meta_element_set_no": 999,
        "meta_rev_at_epoch": 4883,
        "meta_bstar": 0,
        "meta_mean_motion_dot": -1.8e-07,
        "meta_mean_motion_ddot": 0,
        "tle_line1": "1 38740U 12043A   25341.86704041 -.00000018  00000+0  00000+0 0  9995",
        "tle_line2": "2 38740   0.0039  83.3168 0002639  82.8308 291.3783  1.00256173 48835"
      },
      "geometry": {
        "type": "Point",
        "coordinates": [
          21.807669672858523,
          0.0007768261834347995
        ]
      }
    },
    {
      "type": "Feature",
      "properties": {
        "norad_id": 38749,
        "name": "INTELSAT 21 (IS-21)",
        "group": "intelsat",
        "lat": -0.03634714451638056,
        "lon": -104.63563411224179,
        "alt_km": 35777.06384314644,
        "timestamp": "2025-12-08T15:42:49.446355+00:00",
        "meta_object_name": "INTELSAT 21 (IS-21)",
        "meta_object_id": "2012-045A",
        "meta_epoch": "2025-12-08T06:28:46.010208",
        "meta_mean_motion": 1.00270712,
        "meta_eccentricity": 0.00022139,
        "meta_inclination": 0.0161,
        "meta_ra_of_asc_node": 3.9674,
        "meta_arg_of_pericenter": 249.6294,
        "meta_mean_anomaly": 222.8794,
        "meta_ephemeris_type": 0,
        "meta_classification_type": "U",
        "meta_norad_cat_id": 38749,
        "meta_element_set_no": 999,
        "meta_rev_at_epoch": 4861,
        "meta_bstar": 0,
        "meta_mean_motion_dot": -2.82e-06,
        "meta_mean_motion_ddot": 0,
        "tle_line1": "1 38749U 12045A   25342.26997697 -.00000282  00000+0  00000+0 0  9995",
        "tle_line2": "2 38749   0.0161   3.9674 0002213 249.6294 222.8794  1.00270712 48617"
      },
      "geometry": {
        "type": "Point",
        "coordinates": [
          -104.63563411224179,
          -0.03634714451638056
        ]
      }
    }
  ]
}